[{"OBJECT_NAME":"EYESAT A (AO-27)","OBJECT_ID":"1993-061C","EPOCH":"2026-03-09T16:58:07.157856","MEAN_MOTION":14.30913089,"ECCENTRICITY":0.00089503,"INCLINATION":98.6982,"RA_OF_ASC_NODE":136.1171,"ARG_OF_PERICENTER":38.8989,"MEAN_ANOMALY":321.2837,"EPHEMERIS_TYPE":0,"CLASSIFICATION_TYPE":"U","NORAD_CAT_ID":22825,"ELEMENT_SET_NO":999,"REV_AT_EPOCH":69277,"BSTAR":7.1797441e-5,"MEAN_MOTION_DOT":1.44e-6,"MEAN_MOTION_DDOT":0},{"OBJECT_NAME":"CZ-6A DEB","OBJECT_ID":"2024-140KL","EPOCH":"2026-03-09T14:36:53.698176","MEAN_MOTION":14.2444292,"ECCENTRICITY":0.0034578,"INCLINATION":88.9981,"RA_OF_ASC_NODE":285.712,"ARG_OF_PERICENTER":137.2995,"MEAN_ANOMALY":223.0894,"EPHEMERIS_TYPE":0,"CLASSIFICATION_TYPE":"U","NORAD_CAT_ID":60881,"ELEMENT_SET_NO":999,"REV_AT_EPOCH":7902,"BSTAR":0.00080818,"MEAN_MOTION_DOT":1.896e-5,"MEAN_MOTION_DDOT":0}]
